ONEWEB-0495             
1 54115U 22138C   26053.04785008  .00000061  00000+0  11902-3 0  9992
2 54115  87.9248 327.9027 0001314 100.7180 259.4100 13.19725883161637
ONEWEB-0497             
1 54116U 22138D   26052.75721214  .00000027  00000+0  34955-4 0  9995
2 54116  87.9249 327.9505 0001696  81.0564 279.0761 13.19725003161589
ONEWEB-0499             
1 54117U 22138E   26053.04389164  .00000073  00000+0  15094-3 0  9996
2 54117  87.9247 327.9040 0001533  76.9877 283.1427 13.19724156161631
ONEWEB-0500             
1 54118U 22138F   26053.04626840  .00000015  00000+0  63290-5 0  9991
2 54118  87.9250 327.8926 0001808  79.0509 281.0827 13.19725249161645
ONEWEB-0501             
1 54119U 22138G   26053.15209993  .00000076  00000+0  15747-3 0  9999
2 54119  87.9248 327.8731 0001464  89.3135 270.8166 13.19724912161631
ONEWEB-0502             
1 54120U 22138H   26052.75879148  .00000054  00000+0  10377-3 0  9991
2 54120  87.9258 327.9344 0001468  79.9572 280.1727 13.19725180161601
ONEWEB-0503             
1 54121U 22138J   26053.05100355  .00000051  00000+0  95427-4 0  9990
2 54121  87.9255 327.8804 0001627  71.1513 288.9797 13.19724464161635
ONEWEB-0504             
1 54122U 22138K   26053.11419185  .00000002  00000+0 -28490-4 0  9995
2 54122  87.9249 327.8794 0001491  79.9195 280.2106 13.19724885161656
ONEWEB-0505             
1 54123U 22138L   26053.03520767  .00000089  00000+0  19059-3 0  9990
2 54123  87.9258 327.8900 0001294  89.1087 271.0194 13.19724288161629
ONEWEB-0506             
1 54124U 22138M   26052.78249560  .00000081  00000+0  16915-3 0  9991
2 54124  87.9260 327.9373 0001469  85.3498 274.7802 13.19725644161584
ONEWEB-0507             
1 54125U 22138N   26053.03047204  .00000078  00000+0  16237-3 0  9995
2 54125  87.9244 327.9119 0001617  84.3419 275.7898 13.19725655161669
ONEWEB-0508             
1 54126U 22138P   26053.02730668  .00000090  00000+0  19215-3 0  9991
2 54126  87.9248 327.9111 0001577  95.2913 264.8400 13.19728005161649
ONEWEB-0509             
1 54127U 22138Q   26053.15366448  .00000024  00000+0  28333-4 0  9996
2 54127  87.9260 327.8640 0001639  81.8249 278.3070 13.19726592161633
ONEWEB-0510             
1 54128U 22138R   26053.13268311 -.00000005  00000+0 -43479-4 0  9994
2 54128  87.9193 297.4046 0001954  71.8988 288.2358 13.20771063164097
ONEWEB-0511             
1 54129U 22138S   26053.15051502  .00000023  00000+0  26194-4 0  9992
2 54129  87.9260 327.8687 0001569  71.2464 288.8839 13.19725496161664
ONEWEB-0512             
1 54130U 22138T   26052.76353354  .00000052  00000+0  97876-4 0  9997
2 54130  87.9247 327.9611 0001356  84.6908 275.4380 13.19727264161583
ONEWEB-0513             
1 54131U 22138U   26053.04365759  .00000066  00000+0  13081-3 0  9992
2 54131  87.9259 327.8621 0000796  81.3999 278.7224 13.20261360161527
