[{"OBJECT_NAME":"ONEWEB-0495","OBJECT_ID":"2022-138C","EPOCH":"2026-02-22T01:08:54.246912","MEAN_MOTION":13.19725883,"ECCENTRICITY":0.0001314,"INCLINATION":87.9248,"RA_OF_ASC_NODE":327.9027,"ARG_OF_PERICENTER":100.718,"MEAN_ANOMALY":259.41,"EPHEMERIS_TYPE":0,"CLASSIFICATION_TYPE":"U","NORAD_CAT_ID":54115,"ELEMENT_SET_NO":999,"REV_AT_EPOCH":16163,"BSTAR":0.00011902,"MEAN_MOTION_DOT":6.1e-7,"MEAN_MOTION_DDOT":0},{"OBJECT_NAME":"ONEWEB-0497","OBJECT_ID":"2022-138D","EPOCH":"2026-02-21T18:10:23.128896","MEAN_MOTION":13.19725003,"ECCENTRICITY":0.0001696,"INCLINATION":87.9249,"RA_OF_ASC_NODE":327.9505,"ARG_OF_PERICENTER":81.0564,"MEAN_ANOMALY":279.0761,"EPHEMERIS_TYPE":0,"CLASSIFICATION_TYPE":"U","NORAD_CAT_ID":54116,"ELEMENT_SET_NO":999,"REV_AT_EPOCH":16158,"BSTAR":3.4955e-5,"MEAN_MOTION_DOT":2.7e-7,"MEAN_MOTION_DDOT":0},{"OBJECT_NAME":"ONEWEB-0499","OBJECT_ID":"2022-138E","EPOCH":"2026-02-22T01:03:12.237696","MEAN_MOTION":13.19724156,"ECCENTRICITY":0.0001533,"INCLINATION":87.9247,"RA_OF_ASC_NODE":327.904,"ARG_OF_PERICENTER":76.9877,"MEAN_ANOMALY":283.1427,"EPHEMERIS_TYPE":0,"CLASSIFICATION_TYPE":"U","NORAD_CAT_ID":54117,"ELEMENT_SET_NO":999,"REV_AT_EPOCH":16163,"BSTAR":0.00015094,"MEAN_MOTION_DOT":7.3e-7,"MEAN_MOTION_DDOT":0},{"OBJECT_NAME":"ONEWEB-0500","OBJECT_ID":"2022-138F","EPOCH":"2026-02-22T01:06:37.589760","MEAN_MOTION":13.19725249,"ECCENTRICITY":0.0001808,"INCLINATION":87.925,"RA_OF_ASC_NODE":327.8926,"ARG_OF_PERICENTER":79.0509,"MEAN_ANOMALY":281.0827,"EPHEMERIS_TYPE":0,"CLASSIFICATION_TYPE":"U","NORAD_CAT_ID":54118,"ELEMENT_SET_NO":999,"REV_AT_EPOCH":16164,"BSTAR":6.329e-6,"MEAN_MOTION_DOT":1.5e-7,"MEAN_MOTION_DDOT":0},{"OBJECT_NAME":"ONEWEB-0501","OBJECT_ID":"2022-138G","EPOCH":"2026-02-22T03:39:01.433952","MEAN_MOTION":13.19724912,"ECCENTRICITY":0.0001464,"INCLINATION":87.9248,"RA_OF_ASC_NODE":327.8731,"ARG_OF_PERICENTER":89.3135,"MEAN_ANOMALY":270.8166,"EPHEMERIS_TYPE":0,"CLASSIFICATION_TYPE":"U","NORAD_CAT_ID":54119,"ELEMENT_SET_NO":999,"REV_AT_EPOCH":16163,"BSTAR":0.00015747,"MEAN_MOTION_DOT":7.6e-7,"MEAN_MOTION_DDOT":0},{"OBJECT_NAME":"ONEWEB-0502","OBJECT_ID":"2022-138H","EPOCH":"2026-02-21T18:12:39.583872","MEAN_MOTION":13.1972518,"ECCENTRICITY":0.0001468,"INCLINATION":87.9258,"RA_OF_ASC_NODE":327.9344,"ARG_OF_PERICENTER":79.9572,"MEAN_ANOMALY":280.1727,"EPHEMERIS_TYPE":0,"CLASSIFICATION_TYPE":"U","NORAD_CAT_ID":54120,"ELEMENT_SET_NO":999,"REV_AT_EPOCH":16160,"BSTAR":0.00010377,"MEAN_MOTION_DOT":5.4e-7,"MEAN_MOTION_DDOT":0},{"OBJECT_NAME":"ONEWEB-0503","OBJECT_ID":"2022-138J","EPOCH":"2026-02-22T01:13:26.706720","MEAN_MOTION":13.19724464,"ECCENTRICITY":0.0001627,"INCLINATION":87.9255,"RA_OF_ASC_NODE":327.8804,"ARG_OF_PERICENTER":71.1513,"MEAN_ANOMALY":288.9797,"EPHEMERIS_TYPE":0,"CLASSIFICATION_TYPE":"U","NORAD_CAT_ID":54121,"ELEMENT_SET_NO":999,"REV_AT_EPOCH":16163,"BSTAR":9.5427e-5,"MEAN_MOTION_DOT":5.1e-7,"MEAN_MOTION_DDOT":0},{"OBJECT_NAME":"ONEWEB-0504","OBJECT_ID":"2022-138K","EPOCH":"2026-02-22T02:44:26.175840","MEAN_MOTION":13.19724885,"ECCENTRICITY":0.0001491,"INCLINATION":87.9249,"RA_OF_ASC_NODE":327.8794,"ARG_OF_PERICENTER":79.9195,"MEAN_ANOMALY":280.2106,"EPHEMERIS_TYPE":0,"CLASSIFICATION_TYPE":"U","NORAD_CAT_ID":54122,"ELEMENT_SET_NO":999,"REV_AT_EPOCH":16165,"BSTAR":-2.849e-5,"MEAN_MOTION_DOT":2.0e-8,"MEAN_MOTION_DDOT":0},{"OBJECT_NAME":"ONEWEB-0505","OBJECT_ID":"2022-138L","EPOCH":"2026-02-22T00:50:41.942688","MEAN_MOTION":13.19724288,"ECCENTRICITY":0.0001294,"INCLINATION":87.9258,"RA_OF_ASC_NODE":327.89,"ARG_OF_PERICENTER":89.1087,"MEAN_ANOMALY":271.0194,"EPHEMERIS_TYPE":0,"CLASSIFICATION_TYPE":"U","NORAD_CAT_ID":54123,"ELEMENT_SET_NO":999,"REV_AT_EPOCH":16162,"BSTAR":0.00019059,"MEAN_MOTION_DOT":8.9e-7,"MEAN_MOTION_DDOT":0},{"OBJECT_NAME":"ONEWEB-0506","OBJECT_ID":"2022-138M","EPOCH":"2026-02-21T18:46:47.619840","MEAN_MOTION":13.19725644,"ECCENTRICITY":0.0001469,"INCLINATION":87.926,"RA_OF_ASC_NODE":327.9373,"ARG_OF_PERICENTER":85.3498,"MEAN_ANOMALY":274.7802,"EPHEMERIS_TYPE":0,"CLASSIFICATION_TYPE":"U","NORAD_CAT_ID":54124,"ELEMENT_SET_NO":999,"REV_AT_EPOCH":16158,"BSTAR":0.00016915,"MEAN_MOTION_DOT":8.1e-7,"MEAN_MOTION_DDOT":0},{"OBJECT_NAME":"ONEWEB-0507","OBJECT_ID":"2022-138N","EPOCH":"2026-02-22T00:43:52.784256","MEAN_MOTION":13.19725655,"ECCENTRICITY":0.0001617,"INCLINATION":87.9244,"RA_OF_ASC_NODE":327.9119,"ARG_OF_PERICENTER":84.3419,"MEAN_ANOMALY":275.7898,"EPHEMERIS_TYPE":0,"CLASSIFICATION_TYPE":"U","NORAD_CAT_ID":54125,"ELEMENT_SET_NO":999,"REV_AT_EPOCH":16166,"BSTAR":0.00016237,"MEAN_MOTION_DOT":7.8e-7,"MEAN_MOTION_DDOT":0},{"OBJECT_NAME":"ONEWEB-0508","OBJECT_ID":"2022-138P","EPOCH":"2026-02-22T00:39:19.297152","MEAN_MOTION":13.19728005,"ECCENTRICITY":0.0001577,"INCLINATION":87.9248,"RA_OF_ASC_NODE":327.9111,"ARG_OF_PERICENTER":95.2913,"MEAN_ANOMALY":264.84,"EPHEMERIS_TYPE":0,"CLASSIFICATION_TYPE":"U","NORAD_CAT_ID":54126,"ELEMENT_SET_NO":999,"REV_AT_EPOCH":16164,"BSTAR":0.00019215,"MEAN_MOTION_DOT":9.0e-7,"MEAN_MOTION_DDOT":0},{"OBJECT_NAME":"ONEWEB-0509","OBJECT_ID":"2022-138Q","EPOCH":"2026-02-22T03:41:16.611072","MEAN_MOTION":13.19726592,"ECCENTRICITY":0.0001639,"INCLINATION":87.926,"RA_OF_ASC_NODE":327.864,"ARG_OF_PERICENTER":81.8249,"MEAN_ANOMALY":278.307,"EPHEMERIS_TYPE":0,"CLASSIFICATION_TYPE":"U","NORAD_CAT_ID":54127,"ELEMENT_SET_NO":999,"REV_AT_EPOCH":16163,"BSTAR":2.8333e-5,"MEAN_MOTION_DOT":2.4e-7,"MEAN_MOTION_DDOT":0},{"OBJECT_NAME":"ONEWEB-0510","OBJECT_ID":"2022-138R","EPOCH":"2026-02-22T03:11:03.820704","MEAN_MOTION":13.20771063,"ECCENTRICITY":0.0001954,"INCLINATION":87.9193,"RA_OF_ASC_NODE":297.4046,"ARG_OF_PERICENTER":71.8988,"MEAN_ANOMALY":288.2358,"EPHEMERIS_TYPE":0,"CLASSIFICATION_TYPE":"U","NORAD_CAT_ID":54128,"ELEMENT_SET_NO":999,"REV_AT_EPOCH":16409,"BSTAR":-4.3479e-5,"MEAN_MOTION_DOT":-5.0e-8,"MEAN_MOTION_DDOT":0},{"OBJECT_NAME":"ONEWEB-0511","OBJECT_ID":"2022-138S","EPOCH":"2026-02-22T03:36:44.497728","MEAN_MOTION":13.19725496,"ECCENTRICITY":0.0001569,"INCLINATION":87.926,"RA_OF_ASC_NODE":327.8687,"ARG_OF_PERICENTER":71.2464,"MEAN_ANOMALY":288.8839,"EPHEMERIS_TYPE":0,"CLASSIFICATION_TYPE":"U","NORAD_CAT_ID":54129,"ELEMENT_SET_NO":999,"REV_AT_EPOCH":16166,"BSTAR":2.6194e-5,"MEAN_MOTION_DOT":2.3e-7,"MEAN_MOTION_DDOT":0},{"OBJECT_NAME":"ONEWEB-0512","OBJECT_ID":"2022-138T","EPOCH":"2026-02-21T18:19:29.297856","MEAN_MOTION":13.19727264,"ECCENTRICITY":0.0001356,"INCLINATION":87.9247,"RA_OF_ASC_NODE":327.9611,"ARG_OF_PERICENTER":84.6908,"MEAN_ANOMALY":275.438,"EPHEMERIS_TYPE":0,"CLASSIFICATION_TYPE":"U","NORAD_CAT_ID":54130,"ELEMENT_SET_NO":999,"REV_AT_EPOCH":16158,"BSTAR":9.7876e-5,"MEAN_MOTION_DOT":5.2e-7,"MEAN_MOTION_DDOT":0},{"OBJECT_NAME":"ONEWEB-0513","OBJECT_ID":"2022-138U","EPOCH":"2026-02-22T01:02:52.015776","MEAN_MOTION":13.2026136,"ECCENTRICITY":7.96e-5,"INCLINATION":87.9259,"RA_OF_ASC_NODE":327.8621,"ARG_OF_PERICENTER":81.3999,"MEAN_ANOMALY":278.7224,"EPHEMERIS_TYPE":0,"CLASSIFICATION_TYPE":"U","NORAD_CAT_ID":54131,"ELEMENT_SET_NO":999,"REV_AT_EPOCH":16152,"BSTAR":0.00013081,"MEAN_MOTION_DOT":6.6e-7,"MEAN_MOTION_DDOT":0}]
